NORAD_CAT_ID,OBJECT_NAME,OBJECT_TYPE,EPOCH,MEAN_MOTION,ECCENTRICITY,INCLINATION,RA_OF_ASC_NODE,ARG_OF_PERICENTER,MEAN_ANOMALY,BSTAR,MEAN_MOTION_DOT,MEAN_MOTION_DDOT,TLE_LINE0,TLE_LINE1,TLE_LINE2,SEMIMAJOR_AXIS,PERIOD,APOGEE,PERIGEE,DECAYED
54095.0,STARLINK-5193,PAYLOAD,2022-11-28 08:00:01,15.7319709,0.0004095,53.2149,316.2389,0.7311,60.0316,-0.00011933,-0.00017344,0.0,0 STARLINK-5193,1 54095U 22136AW  22332.33334491 -.00017344  00000-0 -11933-3 0  9990,2 54095  53.2149 316.2389 0004095   0.7311  60.0316 15.73197090  6599,6727.903,91.533,352.524,347.01300000000015,0.0
54095.0,STARLINK-5193,PAYLOAD,2022-11-28 22:00:01,15.73192465,0.0003881,53.2151,313.3497,1.2825,125.1501,0.00056897,0.00079993,0.0,0 STARLINK-5193,1 54095U 22136AW  22332.91668981  .00079993  00000-0  56897-3 0  9992,2 54095  53.2151 313.3497 0003881   1.2825 125.1501 15.73192465  6688,6727.917,91.534,352.39300000000014,347.171,0.0
54095.0,STARLINK-5193,PAYLOAD,2022-11-29 14:00:01,15.73234532,0.0004001,53.2151,310.05,356.9480000000001,307.4057,-0.00053443,-0.00075111,0.0,0 STARLINK-5193,1 54095U 22136AW  22333.58335648 -.00075111  00000-0 -53443-3 0  9991,2 54095  53.2151 310.0500 0004001 356.9480 307.4057 15.73234532  6783,6727.797,91.531,352.35400000000016,346.97,0.0
54095.0,STARLINK-5193,PAYLOAD,2022-11-29 22:00:00,15.73334896,0.0003628999999999,53.2162,308.3958,343.0762,50.128,-0.00359,-0.0047988,0.0,0 STARLINK-5193,1 54095U 22136AW  22333.91667824 -.00479880  00000-0 -35900-2 0  9990,2 54095  53.2162 308.3958 0003629 343.0762  50.1280 15.73334896  1304,6727.511,91.525,351.81699999999995,346.934,0.0
54095.0,STARLINK-5193,PAYLOAD,2022-11-30 06:00:00,15.73135511,0.0003995,53.2172,306.7461,313.5864,168.4867,-0.0084234,-0.0106151,0.0,0 STARLINK-5193,1 54095U 22136AW  22334.25001157 -.01061510  00000-0 -84234-2 0  9991,2 54095  53.2172 306.7461 0003995 313.5864 168.4867 15.73135511  6893,6728.079000000002,91.537,352.63199999999995,347.256,0.0
54095.0,STARLINK-5193,PAYLOAD,2022-11-30 14:00:01,15.72373677,0.0005704,53.2174,305.0959,282.5875,287.9333,-0.0094256,-0.0114116,0.0,0 STARLINK-5193,1 54095U 22136AW  22334.58335648 -.01141160  00000-0 -94256-2 0  9997,2 54095  53.2174 305.0959 0005704 282.5875 287.9333 15.72373677  1308,6730.252,91.581,355.956,348.278,0.0
54095.0,STARLINK-5193,PAYLOAD,2022-11-30 22:00:00,15.71545246,0.0006926,53.2175,303.4481,270.7254,27.1591,-0.0095129,-0.01115588,0.0,0 STARLINK-5193,1 54095U 22136AW  22334.91667824 -.01115588  00000-0 -95129-2 0  9993,2 54095  53.2175 303.4481 0006926 270.7254  27.1591 15.71545246  6990,6732.6169999999975,91.63,359.145,349.819,0.0
54095.0,STARLINK-5193,PAYLOAD,2022-12-01 14:00:01,15.69937104,0.000277,53.2174,300.1621,272.5459,197.2456,-0.010533,-0.01147063,0.0,0 STARLINK-5193,1 54095U 22136AW  22335.58334491 -.01147063  00000-0 -10533-1 0  9996,2 54095  53.2174 300.1621 0002770 272.5459 197.2456 15.69937104  1303,6737.214,91.723,360.945,357.213,0.0
54095.0,STARLINK-5193,PAYLOAD,2022-12-01 22:00:00,15.68909086,0.0005535,53.2166,298.5218,267.9027,286.4838,-0.007984,-0.00847528,0.0,0 STARLINK-5193,1 54095U 22136AW  22335.91667824 -.00847528  00000-0 -79840-2 0  9991,2 54095  53.2166 298.5218 0005535 267.9027 286.4838 15.68909086  1309,6740.156999999997,91.784,365.752,358.291,0.0
54095.0,STARLINK-5193,PAYLOAD,2022-12-02 00:00:00,15.6886956,0.0004872,53.2169,298.1114,267.9878,37.2821,-0.01015,-0.01067366,0.0,0 STARLINK-5193,1 54095U 22136AW  22336.00001157 -.01067366  00000-0 -10150-1 0  9996,2 54095  53.2169 298.1114 0004872 267.9878  37.2821 15.68869560  7166,6740.27,91.786,365.419,358.851,0.0
54095.0,STARLINK-5193,PAYLOAD,2022-12-02 14:00:01,15.67478592,0.0001893,53.217,295.247,296.703,63.63,-0.011303,-0.01133,0.0,0 STARLINK-5193,1 54095U 22136AW  22336.58334491 -.01133000  00000-0 -11303-1 0  9999,2 54095  53.2170 295.2470 0001893 296.7030  63.6300 15.67478592  1317,6744.257,91.867,367.398,364.845,0.0
54095.0,STARLINK-5193,PAYLOAD,2022-12-02 16:00:00,15.67285831,0.0001335,53.2174,294.8371,315.5518,155.2598,-0.011618,-0.01153088,0.0,0 STARLINK-5193,1 54095U 22136AW  22336.66667824 -.01153088  00000-0 -11618-1 0  9994,2 54095  53.2174 294.8371 0001335 315.5518 155.2598 15.67285831  7278,6744.81,91.879,367.575,365.774,0.0
54095.0,STARLINK-5193,PAYLOAD,2022-12-02 22:00:00,15.66727823,0.0001301,53.2166,293.6119,357.2768,84.5833,-0.012653,-0.01220061,0.0,0 STARLINK-5193,1 54095U 22136AW  22336.91667824 -.01220061  00000-0 -12653-1 0  9998,2 54095  53.2166 293.6119 0001301 357.2768  84.5833 15.66727823  1304,6746.411,91.911,369.154,367.398,0.0
54095.0,STARLINK-5193,PAYLOAD,2022-12-03 14:00:01,15.65054593,0.0001276,53.217,290.3496,56.4715,185.5903,-0.012789,-0.01158819,0.0,0 STARLINK-5193,1 54095U 22136AW  22337.58334491 -.01158819  00000-0 -12789-1 0  9994,2 54095  53.2170 290.3496 0001276  56.4715 185.5903 15.65054593  7416,6751.219,92.01,373.945,372.222,0.0
54095.0,STARLINK-5193,PAYLOAD,2022-12-03 22:00:00,15.6424218,0.000117,53.2169,288.72,54.6246,266.0595,-0.013213,-0.01158861,0.0,0 STARLINK-5193,1 54095U 22136AW  22337.91667824 -.01158861  00000-0 -13213-1 0  9990,2 54095  53.2169 288.7200 0001170  54.6246 266.0595 15.64242180  1304,6753.556,92.057,376.211,374.631,0.0
54095.0,STARLINK-5193,PAYLOAD,2022-12-04 14:00:01,15.62596221,0.0001259,53.2172,285.4685,58.7402,56.2657,-0.013768,-0.01133884,0.0,0 STARLINK-5193,1 54095U 22136AW  22338.58334491 -.01133884  00000-0 -13768-1 0  9998,2 54095  53.2172 285.4685 0001259  58.7402  56.2657 15.62596221  1300,6758.2980000000025,92.154,381.014,379.312,0.0
54095.0,STARLINK-5193,PAYLOAD,2022-12-04 22:00:00,15.61796625,0.0001346,53.2166,283.8458,61.3978,129.2902,-0.014454,-0.01151762,0.0,0 STARLINK-5193,1 54095U 22136AW  22338.91667824 -.01151762  00000-0 -14454-1 0  9992,2 54095  53.2166 283.8458 0001346  61.3978 129.2902 15.61796625  1301,6760.604,92.202,383.379,381.559,0.0
54095.0,STARLINK-5193,PAYLOAD,2022-12-05 06:00:00,15.60976876,0.0001205,53.2168,282.2273,73.218,192.1831,-0.014807,-0.01143591,0.0,0 STARLINK-5193,1 54095U 22136AW  22339.25001157 -.01143591  00000-0 -14807-1 0  9994,2 54095  53.2168 282.2273 0001205  73.2180 192.1831 15.60976876  7675,6762.971,92.25,385.651,384.021,0.0
54095.0,STARLINK-5193,PAYLOAD,2022-12-05 14:00:01,15.60173666,0.0001103,53.2169,280.6068,60.5515,278.6447,-0.015496,-0.01158522,0.0,0 STARLINK-5193,1 54095U 22136AW  22339.58335648 -.01158522  00000-0 -15496-1 0  9990,2 54095  53.2169 280.6068 0001103  60.5515 278.6447 15.60173666  1301,6765.292,92.297,387.903,386.411,0.0
54095.0,STARLINK-5193,PAYLOAD,2022-12-05 22:00:01,15.59342515,0.0001195,53.2176,278.9888,57.9549,354.0063,-0.015632,-0.01134467,0.0,0 STARLINK-5193,1 54095U 22136AW  22339.91668981 -.01134467  00000-0 -15632-1 0  9990,2 54095  53.2176 278.9888 0001195  57.9549 354.0063 15.59342515  1309,6767.696,92.347,390.37,388.752,0.0
54095.0,STARLINK-5193,PAYLOAD,2022-12-06 08:00:01,15.58331448,0.0001323,53.2168,276.9729,65.5778,165.8832,-0.016352,-0.01141127,0.0,0 STARLINK-5193,1 54095U 22136AW  22340.33334491 -.01141127  00000-0 -16352-1 0  9995,2 54095  53.2168 276.9729 0001323  65.5778 165.8832 15.58331448  7843,6770.623000000001,92.407,393.384,391.592,0.0
54095.0,STARLINK-5193,PAYLOAD,2022-12-06 14:00:01,15.57720172,0.0001355,53.2173,275.7616,62.4696,132.067,-0.016729,-0.01140729,0.0,0 STARLINK-5193,1 54095U 22136AW  22340.58335648 -.01140729  00000-0 -16729-1 0  9992,2 54095  53.2173 275.7616 0001355  62.4696 132.0670 15.57720172  1307,6772.394,92.443,395.177,393.341,0.0
54095.0,STARLINK-5193,PAYLOAD,2022-12-06 22:00:00,15.56910286,0.0001323,53.2171,274.1507,61.9942,202.2978,-0.017329,-0.0114556,0.0,0 STARLINK-5193,1 54095U 22136AW  22340.91667824 -.01145560  00000-0 -17329-1 0  9998,2 54095  53.2171 274.1507 0001323  61.9942 202.2978 15.56910286  1307,6774.7419999999975,92.491,397.504,395.711,0.0
54095.0,STARLINK-5193,PAYLOAD,2022-12-07 08:00:01,15.55887539,0.0001257,53.2171,272.1407,67.5222,12.6741,-0.017847,-0.0113641,0.0,0 STARLINK-5193,1 54095U 22136AW  22341.33334491 -.01136410  00000-0 -17847-1 0  9995,2 54095  53.2171 272.1407 0001257  67.5222  12.6741 15.55887539  8001,6777.7109999999975,92.552,400.42800000000005,398.724,0.0
54095.0,STARLINK-5193,PAYLOAD,2022-12-07 22:00:00,15.5369284,0.0001935,53.218,269.3277,70.5828,37.7007,-0.00051924,-0.00034112,0.0,0 STARLINK-5193,1 54095U 22136AW  22341.91667824 -.00034112  00000-0 -51924-3 0  9999,2 54095  53.2180 269.3277 0001935  70.5828  37.7007 15.53692840  1309,6784.092,92.682,407.27,404.644,0.0
54095.0,STARLINK-5193,PAYLOAD,2022-12-08 08:00:01,15.53442633,0.0001286999999999,53.2171,267.327,55.1672,224.9641,-0.019443,-0.01131605,0.0,0 STARLINK-5193,1 54095U 22136AW  22342.33334491 -.01131605  00000-0 -19443-1 0  9991,2 54095  53.2171 267.3270 0001287  55.1672 224.9641 15.53442633  8153,6784.82,92.697,407.559,405.812,0.0
54095.0,STARLINK-5193,PAYLOAD,2022-12-08 14:00:01,15.54430143,9.43e-05,53.2143,266.1228,10.8813,231.4289,0.00067033,0.00044574,0.0,0 STARLINK-5193,1 54095U 22136AW  22342.58334491  .00044574  00000-0  67033-3 0  9993,2 54095  53.2143 266.1228 0000943  10.8813 231.4289 15.54430143  1300,6781.946999999999,92.638,404.451,403.172,0.0
54095.0,STARLINK-5193,PAYLOAD,2022-12-08 22:00:01,15.54481281,9.81e-05,53.2144,264.5191,17.1347,291.6283,-1.9971e-05,-1.815e-05,0.0,0 STARLINK-5193,1 54095U 22136AW  22342.91668981 -.00001815  00000-0 -19971-4 0  9996,2 54095  53.2144 264.5191 0000981  17.1347 291.6283 15.54481281  1307,6781.7980000000025,92.635,404.328,402.99800000000016,0.0
54095.0,STARLINK-5193,PAYLOAD,2022-12-09 00:00:00,15.54479218,0.0001082,53.2143,264.1188,15.9829,39.3168,-0.00015317,-0.00010719,0.0,0 STARLINK-5193,1 54095U 22136AW  22343.00001157 -.00010719  00000-0 -15317-3 0  9995,2 54095  53.2143 264.1188 0001082  15.9829  39.3168 15.54479218  8260,6781.804,92.636,404.403,402.935,0.0
